QIANFAN-1               
1 60379U 24140A   25312.10448493  .00000037  00000+0  38561-4 0  9998
2 60379  88.9729 302.8717 0016284 320.6481  39.3486 13.50978397 62679
QIANFAN-2               
1 60380U 24140B   25312.13342823  .00000036  00000+0  36715-4 0  9991
2 60380  88.9715 302.7128 0010942 291.4877  68.5107 13.50970518 62738
QIANFAN-3               
1 60381U 24140C   25312.14169259  .00000040  00000+0  42995-4 0  9995
2 60381  88.9708 302.8472 0012309 305.3689  54.6312 13.50976665 62642
QIANFAN-4               
1 60382U 24140D   25312.11687265  .00000045  00000+0  51549-4 0  9995
2 60382  88.9733 302.7387 0011213 294.4508  65.5473 13.50977071 62760
QIANFAN-5               
1 60383U 24140E   25312.09226281  .00000040  00000+0  43581-4 0  9992
2 60383  88.9707 302.8779 0013858 317.3693  42.6382 13.50973987 62627
QIANFAN-6               
1 60384U 24140F   25312.11286091  .00000047  00000+0  53880-4 0  9991
2 60384  88.9734 302.6126 0011443 301.2097  58.7932 13.50974906 62823
QIANFAN-7               
1 60385U 24140G   25312.11945044  .00000445  00000+0  17462-3 0  9999
2 60385  88.9748 297.7935 0015997 146.9504 213.2694 14.27593279 65456
QIANFAN-8               
1 60386U 24140H   25312.12106535  .00000043  00000+0  48908-4 0  9999
2 60386  88.9735 302.8487 0014935 302.4887  57.4820 13.50972916 62671
